[{"OBJECT_NAME":"STARLINK-1759","OBJECT_ID":"2020-062R","EPOCH":"2026-03-10T00:00:02.999808","MEAN_MOTION":15.59261383,"ECCENTRICITY":0.0003276,"INCLINATION":53.0236,"RA_OF_ASC_NODE":329.2132,"ARG_OF_PERICENTER":73.9633,"MEAN_ANOMALY":239.4203,"EPHEMERIS_TYPE":0,"CLASSIFICATION_TYPE":"U","NORAD_CAT_ID":46340,"ELEMENT_SET_NO":999,"REV_AT_EPOCH":588,"BSTAR":0.0015925687,"MEAN_MOTION_DOT":0.00129033,"MEAN_MOTION_DDOT":0},{"OBJECT_NAME":"LEMUR-2-MANO","OBJECT_ID":"2023-100E","EPOCH":"2026-03-09T12:12:06.566976","MEAN_MOTION":15.60757322,"ECCENTRICITY":8.453e-5,"INCLINATION":99.4548,"RA_OF_ASC_NODE":90.9769,"ARG_OF_PERICENTER":85.7281,"MEAN_ANOMALY":274.4066,"EPHEMERIS_TYPE":0,"CLASSIFICATION_TYPE":"U","NORAD_CAT_ID":57390,"ELEMENT_SET_NO":999,"REV_AT_EPOCH":14645,"BSTAR":0.0016554992,"MEAN_MOTION_DOT":0.00139738,"MEAN_MOTION_DDOT":0}]
